NORAD_CAT_ID,OBJECT_NAME,OBJECT_TYPE,EPOCH,MEAN_MOTION,ECCENTRICITY,INCLINATION,RA_OF_ASC_NODE,ARG_OF_PERICENTER,MEAN_ANOMALY,BSTAR,MEAN_MOTION_DOT,MEAN_MOTION_DDOT,TLE_LINE0,TLE_LINE1,TLE_LINE2,SEMIMAJOR_AXIS,PERIOD,APOGEE,PERIGEE,DECAYED
50834.0,STARLINK-3331,PAYLOAD,2023-06-01 22:49:22,15.08840959,0.000135,53.2173,40.9877,113.488,246.6254,8.5019e-05,1.065e-05,0.0,0 STARLINK-3331,1 50834U 22001AH  23152.95095354  .00001065  00000-0  85019-4 0  9997,2 50834  53.2173  40.9877 0001350 113.4880 246.6254 15.08840959 77521,6917.877,95.437,540.676,538.809,0.0
50834.0,STARLINK-3331,PAYLOAD,2023-06-02 21:04:46,15.0883798,0.000108,53.2171,36.8287,94.8808,265.2308,5.6155e-05,6.06e-06,0.0,0 STARLINK-3331,1 50834U 22001AH  23153.87831838  .00000606  00000-0  56155-4 0  9993,2 50834  53.2171  36.8287 0001080  94.8808 265.2308 15.08837980 77662,6917.887,95.438,540.499,539.004,0.0
50834.0,STARLINK-3331,PAYLOAD,2023-06-03 01:50:56,15.08841278,0.0001084,53.2161,35.9409,71.353,288.758,0.00015771,2.223e-05,0.0,0 STARLINK-3331,1 50834U 22001AH  23154.07703887  .00002223  00000-0  15771-3 0  9993,2 50834  53.2161  35.9409 0001084  71.3530 288.7580 15.08841278 78975,6917.876,95.437,540.491,538.992,0.0
50834.0,STARLINK-3331,PAYLOAD,2023-06-03 22:30:56,15.08848022,0.0001187,53.2175,32.0706,84.9634,275.1493,0.00016023,2.264e-05,0.0,0 STARLINK-3331,1 50834U 22001AH  23154.93815612  .00002264  00000-0  16023-3 0  9994,2 50834  53.2175  32.0706 0001187  84.9634 275.1493 15.08848022 77827,6917.856,95.437,540.542,538.9,0.0
50834.0,STARLINK-3331,PAYLOAD,2023-06-04 11:14:01,15.08843748,0.0001165,53.2164,29.6917,90.4089,269.7037,0.00016376,2.32e-05,0.0,0 STARLINK-3331,1 50834U 22001AH  23155.46807758  .00002320  00000-0  16376-3 0  9999,2 50834  53.2164  29.6917 0001165  90.4089 269.7037 15.08843748 77905,6917.869,95.437,540.54,538.928,0.0
50834.0,STARLINK-3331,PAYLOAD,2023-06-04 19:10:57,15.08842751,0.0001148,53.2167,28.2051,87.3765,272.7358,0.00013544,1.869e-05,0.0,0 STARLINK-3331,1 50834U 22001AH  23155.79927766  .00001869  00000-0  13544-3 0  9998,2 50834  53.2167  28.2051 0001148  87.3765 272.7358 15.08842751 79230,6917.872,95.437,540.531,538.943,0.0
50834.0,STARLINK-3331,PAYLOAD,2023-06-04 22:21:43,15.08848364,0.0001143,53.2167,27.6103,82.6396,277.4726,0.00019057,2.747e-05,0.0,0 STARLINK-3331,1 50834U 22001AH  23155.93175455  .00002747  00000-0  19057-3 0  9995,2 50834  53.2167  27.6103 0001143  82.6396 277.4726 15.08848364 77970,6917.855,95.437,540.511,538.929,0.0
50834.0,STARLINK-3331,PAYLOAD,2023-06-05 20:37:07,15.08842797,0.0001026,53.2171,23.4495,85.3509,274.76,3.9147e-05,3.35e-06,0.0,0 STARLINK-3331,1 50834U 22001AH  23156.85911567  .00000335  00000-0  39147-4 0  9993,2 50834  53.2171  23.4495 0001026  85.3509 274.7600 15.08842797 78111,6917.872,95.437,540.447,539.027,0.0
50834.0,STARLINK-3331,PAYLOAD,2023-06-05 22:12:30,15.0884293,0.000101,53.217,23.152,86.239,273.8718,3.9575e-05,3.42e-06,0.0,0 STARLINK-3331,1 50834U 22001AH  23156.92535541  .00000342  00000-0  39575-4 0  9998,2 50834  53.2170  23.1520 0001010  86.2390 273.8718 15.08842930 79409,6917.871,95.437,540.435,539.038,0.0
50834.0,STARLINK-3331,PAYLOAD,2023-06-06 10:55:35,15.08839187,9.65e-05,53.2172,20.7729,85.4087,274.7015,4.0419e-05,3.56e-06,0.0,0 STARLINK-3331,1 50834U 22001AH  23157.45527671  .00000356  00000-0  40419-4 0  9996,2 50834  53.2172  20.7729 0000965  85.4087 274.7015 15.08839187 78204,6917.883,95.438,540.415,539.08,0.0
50834.0,STARLINK-3331,PAYLOAD,2023-06-06 17:17:08,15.08835835,9.39e-05,53.2174,19.5835,84.0671,276.0428,-2.2371e-05,-6.44e-06,0.0,0 STARLINK-3331,1 50834U 22001AH  23157.72023871 -.00000644  00000-0 -22371-4 0  9998,2 50834  53.2174  19.5835 0000939  84.0671 276.0428 15.08835835 79520,6917.893,95.438,540.408,539.109,0.0
50834.0,STARLINK-3331,PAYLOAD,2023-06-06 18:52:32,15.08835664,9.33e-05,53.2181,19.2861,86.1701,273.9398,3.0251e-05,1.94e-06,0.0,0 STARLINK-3331,1 50834U 22001AH  23157.78648266  .00000194  00000-0  30251-4 0  9999,2 50834  53.2181  19.2861 0000933  86.1701 273.9398 15.08835664 78256,6917.894,95.438,540.404,539.113,0.0
50834.0,STARLINK-3331,PAYLOAD,2023-06-07 09:11:00,15.08837928,0.000101,53.2179,16.6103,91.2156,268.8952,6.8704e-05,8.06e-06,0.0,0 STARLINK-3331,1 50834U 22001AH  23158.38264058  .00000806  00000-0  68704-4 0  9993,2 50834  53.2179  16.6103 0001010  91.2156 268.8952 15.08837928 78345,6917.887,95.438,540.45,539.053,0.0
50834.0,STARLINK-3331,PAYLOAD,2023-06-07 18:43:19,15.08835641,9.96e-05,53.2176,14.8255,98.1387,261.9718,2.9641e-05,1.84e-06,0.0,0 STARLINK-3331,1 50834U 22001AH  23158.78008453  .00000184  00000-0  29641-4 0  9998,2 50834  53.2176  14.8255 0000996  98.1387 261.9718 15.08835641 79686,6917.894,95.438,540.448,539.07,0.0
50834.0,STARLINK-3331,PAYLOAD,2023-06-07 20:18:42,15.08837349,0.0001001,53.2175,14.5282,97.7408,262.3697,4.5837e-05,4.42e-06,0.0,0 STARLINK-3331,1 50834U 22001AH  23158.84632342  .00000442  00000-0  45837-4 0  9997,2 50834  53.2175  14.5282 0001001  97.7408 262.3697 15.08837349 78417,6917.888,95.438,540.446,539.061,0.0
50834.0,STARLINK-3331,PAYLOAD,2023-06-08 13:47:56,15.08837235,0.0001075,53.2174,11.256,94.8633,265.2482,0.00016725,2.375e-05,0.0,0 STARLINK-3331,1 50834U 22001AH  23159.57496240  .00002375  00000-0  16725-3 0  9993,2 50834  53.2174  11.2560 0001075  94.8633 265.2482 15.08837235 78528,6917.889,95.438,540.498,539.01,0.0
50834.0,STARLINK-3331,PAYLOAD,2023-06-08 23:20:14,15.08850018,0.0001061,53.2175,9.4714,92.8887,267.2227,0.00016032,2.265e-05,0.0,0 STARLINK-3331,1 50834U 22001AH  23159.97239461  .00002265  00000-0  16032-3 0  9996,2 50834  53.2175   9.4714 0001061  92.8887 267.2227 15.08850018 79864,6917.85,95.437,540.449,538.981,0.0
50834.0,STARLINK-3331,PAYLOAD,2023-06-09 07:17:11,15.08840927,0.0001063,53.2164,7.9842,85.0626,275.0488,7.0708e-05,8.38e-06,0.0,0 STARLINK-3331,1 50834U 22001AH  23160.30360101  .00000838  00000-0  70708-4 0  9996,2 50834  53.2164   7.9842 0001063  85.0626 275.0488 15.08840927 79914,6917.878,95.437,540.478,539.007,0.0
50834.0,STARLINK-3331,PAYLOAD,2023-06-09 13:38:43,15.08837986,0.0001162,53.2166,6.7957,88.0766,272.0359,0.00011177,1.491e-05,0.0,0 STARLINK-3331,1 50834U 22001AH  23160.56856380  .00001491  00000-0  11177-3 0  9993,2 50834  53.2166   6.7957 0001162  88.0766 272.0359 15.08837986 78675,6917.887,95.438,540.555,538.948,0.0
50834.0,STARLINK-3331,PAYLOAD,2023-06-09 20:00:16,15.08839427,0.0001074,53.2167,5.6058,92.2158,267.8957,0.00012103,1.639e-05,0.0,0 STARLINK-3331,1 50834U 22001AH  23160.83352343  .00001639  00000-0  12103-3 0  9997,2 50834  53.2167   5.6058 0001074  92.2158 267.8957 15.08839427 78713,6917.882,95.438,540.49,539.004,0.0
50834.0,STARLINK-3331,PAYLOAD,2023-06-10 08:43:21,15.08842316,0.0001225,53.2159,3.2269,88.9304,271.1828,0.00010839,1.438e-05,0.0,0 STARLINK-3331,1 50834U 22001AH  23161.36344240  .00001438  00000-0  10839-3 0  9994,2 50834  53.2159   3.2269 0001225  88.9304 271.1828 15.08842316 80073,6917.873,95.437,540.586,538.891,0.0
50834.0,STARLINK-3331,PAYLOAD,2023-06-10 13:29:30,15.08842425,0.0001219,53.216,2.3346,88.5022,271.611,5.0339e-05,5.13e-06,0.0,0 STARLINK-3331,1 50834U 22001AH  23161.56216247  .00000513  00000-0  50339-4 0  9994,2 50834  53.2160   2.3346 0001219  88.5022 271.6110 15.08842425 78827,6917.873,95.437,540.581,538.895,0.0
50834.0,STARLINK-3331,PAYLOAD,2023-06-10 19:51:03,15.08848756,0.000114,53.2167,1.1446,93.3228,266.7895,0.00013427,1.85e-05,0.0,0 STARLINK-3331,1 50834U 22001AH  23161.82711868  .00001850  00000-0  13427-3 0  9993,2 50834  53.2167   1.1446 0001140  93.3228 266.7895 15.08848756 78869,6917.854,95.437,540.507,538.93,0.0
50834.0,STARLINK-3331,PAYLOAD,2023-06-11 13:20:18,15.0883814,0.0001116,53.2169,357.8752,90.7016,269.4104,0.00010145,1.327e-05,0.0,0 STARLINK-3331,1 50834U 22001AH  23162.55576465  .00001327  00000-0  10145-3 0  9999,2 50834  53.2169 357.8752 0001116  90.7016 269.4104 15.08838140 78972,6917.886,95.438,540.523,538.979,0.0
50834.0,STARLINK-3331,PAYLOAD,2023-06-11 14:55:41,15.08837518,0.0001114,53.2169,357.5778,90.9857,269.1263,8.5602e-05,1.075e-05,0.0,0 STARLINK-3331,1 50834U 22001AH  23162.62200497  .00001075  00000-0  85602-4 0  9997,2 50834  53.2169 357.5778 0001114  90.9857 269.1263 15.08837518 80266,6917.888,95.438,540.524,538.982,0.0
50834.0,STARLINK-3331,PAYLOAD,2023-06-11 19:41:50,15.0884153,0.0001136,53.217,356.6863,79.1538,280.9582,0.00012571,1.713e-05,0.0,0 STARLINK-3331,1 50834U 22001AH  23162.82072365  .00001713  00000-0  12571-3 0  9993,2 50834  53.2170 356.6863 0001136  79.1538 280.9582 15.08841530 79017,6917.876,95.437,540.527,538.955,0.0
50834.0,STARLINK-3331,PAYLOAD,2023-06-12 19:32:37,15.08839512,0.0001073,53.2171,352.2247,83.2364,276.875,6.8697e-05,8.06e-06,0.0,0 STARLINK-3331,1 50834U 22001AH  23163.81432425  .00000806  00000-0  68697-4 0  9993,2 50834  53.2171 352.2247 0001073  83.2364 276.8750 15.08839512 80446,6917.882,95.438,540.489,539.005,0.0
50834.0,STARLINK-3331,PAYLOAD,2023-06-13 13:01:52,15.08832139,0.0001112,53.2156,348.9526,82.4666,277.6453,7.6471e-05,9.29e-06,0.0,0 STARLINK-3331,1 50834U 22001AH  23164.54296866  .00000929  00000-0  76471-4 0  9996,2 50834  53.2156 348.9526 0001112  82.4666 277.6453 15.08832139 80550,6917.904,95.438,540.539,539.0,0.0
50834.0,STARLINK-3331,PAYLOAD,2023-06-13 19:23:24,15.08843353,0.0001432,53.2177,347.7644,94.3369,265.7786,0.00011477,1.539e-05,0.0,0 STARLINK-3331,1 50834U 22001AH  23164.80792313  .00001539  00000-0  11477-3 0  9995,2 50834  53.2177 347.7644 0001432  94.3369 265.7786 15.08843353 80599,6917.87,95.437,540.726,538.745,0.0
50834.0,STARLINK-3331,PAYLOAD,2023-06-14 12:52:39,15.08833644,9.91e-05,53.2172,344.495,87.1283,272.9822,-6.0754e-05,-1.254e-05,0.0,0 STARLINK-3331,1 50834U 22001AH  23165.53656867 -.00001254  00000-0 -60754-4 0  9998,2 50834  53.2172 344.4950 0000991  87.1283 272.9822 15.08833644 80708,6917.9,95.438,540.45,539.079,0.0
